ONEWEB-0545             
1 54647U 22166F   25232.75127278 -.00000005  00000+0 -43267-4 0  9998
2 54647  87.9249 303.9378 0002539  94.1219 266.0205 13.21827818131811
ONEWEB-0580             
1 54648U 22166G   25232.72448175 -.00000038  00000+0 -12474-3 0  9999
2 54648  87.9252 303.9407 0002373 100.8254 259.3148 13.21826543131858
ONEWEB-0582             
1 54649U 22166H   25232.69135061  .00000055  00000+0  10236-3 0  9994
2 54649  87.9242 303.9438 0002540 101.2369 258.9050 13.21827180131822
ONEWEB-0583             
1 54650U 22166J   25232.70241213  .00000034  00000+0  50505-4 0  9996
2 54650  87.9251 303.9641 0002127  95.8121 264.3255 13.21826489131835
ONEWEB-0584             
1 54651U 22166K   25232.72289000  .00000018  00000+0  12938-4 0  9995
2 54651  87.9249 303.9446 0002352 103.1239 257.0158 13.21827785131829
ONEWEB-0585             
1 54652U 22166L   25232.89952992 -.00000029  00000+0 -10169-3 0  9998
2 54652  87.9249 303.8954 0001858  98.1822 261.9522 13.21825507131856
ONEWEB-0586             
1 54653U 22166M   25232.91214435  .00000035  00000+0  52617-4 0  9995
2 54653  87.9252 303.9174 0002205  97.1964 262.9420 13.21826739131855
ONEWEB-0587             
1 54654U 22166N   25232.69447100  .00000075  00000+0  14962-3 0  9992
2 54654  87.9253 303.9087 0001793  98.6405 261.4932 13.21828824131980
